start=new Date('2023-05-26T00:00:00.000Z').valueOf();
sats=[{"LAUNCH_DATE":"2022-02-21","EPOCH":"2023-05-23T12:40:45.306624","EPHEMERIS_TYPE":"0","REF_FRAME":"TEME","BSTAR":"0.00001816600000","TLE_LINE1":"1 51729U 22016R   23143.52830216  .00000001  00000-0  18166-4 0  9992","TIME_SYSTEM":"UTC","ECCENTRICITY":"0.00008160","MEAN_MOTION":"15.08835900","RCS_SIZE":"LARGE","OBJECT_TYPE":"PAYLOAD","NORAD_CAT_ID":"51729","CENTER_NAME":"EARTH","DECAY_DATE":null,"FILE":"3917087","SEMIMAJOR_AXIS":"6917.893","OBJECT_ID":"2022-016R","GP_ID":"232492777","INCLINATION":"53.2127","CLASSIFICATION_TYPE":"U","REV_AT_EPOCH":"7053","SITE":"AFETR","ARG_OF_PERICENTER":"88.0987","MEAN_MOTION_DOT":"0.00000001","MEAN_ELEMENT_THEORY":"SGP4","MEAN_MOTION_DDOT":"0.0000000000000","PERIAPSIS":"539.193","APOAPSIS":"540.322","ELEMENT_SET_NO":"999","PERIOD":"95.438","OBJECT_NAME":"STARLINK-3523","COUNTRY_CODE":"US","RA_OF_ASC_NODE":"223.3012","MEAN_ANOMALY":"272.0099","TLE_LINE2":"2 51729  53.2127 223.3012 0000816  88.0987 272.0099 15.08835900 70537"},{"ARG_OF_PERICENTER":"95.7617","SITE":"AFETR","REV_AT_EPOCH":"6972","GP_ID":"232516781","INCLINATION":"53.2175","CLASSIFICATION_TYPE":"U","PERIOD":"95.438","ELEMENT_SET_NO":"999","MEAN_ANOMALY":"264.3516","TLE_LINE2":"2 51730  53.2175 213.8583 0001231  95.7617 264.3516 15.08837111 69729","COUNTRY_CODE":"US","OBJECT_NAME":"STARLINK-3530","RA_OF_ASC_NODE":"213.8583","MEAN_MOTION_DDOT":"0.0000000000000","PERIAPSIS":"538.903","MEAN_MOTION_DOT":"0.00001072","MEAN_ELEMENT_THEORY":"SGP4","APOAPSIS":"540.606","REF_FRAME":"TEME","EPHEMERIS_TYPE":"0","MEAN_MOTION":"15.08837111","ECCENTRICITY":"0.00012310","TLE_LINE1":"1 51730U 22016S   23145.62958935  .00001072  00000-0  85423-4 0  9995","BSTAR":"0.00008542300000","TIME_SYSTEM":"UTC","LAUNCH_DATE":"2022-02-21","EPOCH":"2023-05-25T15:06:36.519840","FILE":"3917122","NORAD_CAT_ID":"51730","DECAY_DATE":null,"CENTER_NAME":"EARTH","SEMIMAJOR_AXIS":"6917.889","OBJECT_ID":"2022-016S","RCS_SIZE":"LARGE","OBJECT_TYPE":"PAYLOAD"},{"SEMIMAJOR_AXIS":"6917.885","OBJECT_ID":"2022-016T","FILE":"3917103","DECAY_DATE":null,"CENTER_NAME":"EARTH","NORAD_CAT_ID":"51731","OBJECT_TYPE":"PAYLOAD","RCS_SIZE":"LARGE","ECCENTRICITY":"0.00011870","MEAN_MOTION":"15.08838588","TIME_SYSTEM":"UTC","TLE_LINE1":"1 51731U 22016T   23145.57438959  .00001436  00000-0  10829-3 0  9990","BSTAR":"0.00010829000000","REF_FRAME":"TEME","EPHEMERIS_TYPE":"0","EPOCH":"2023-05-25T13:47:07.260576","LAUNCH_DATE":"2022-02-21","TLE_LINE2":"2 51731  53.2170 214.1066 0001187  84.6820 275.4308 15.08838588 70822","MEAN_ANOMALY":"275.4308","RA_OF_ASC_NODE":"214.1066","COUNTRY_CODE":"US","OBJECT_NAME":"STARLINK-3514","PERIOD":"95.438","ELEMENT_SET_NO":"999","APOAPSIS":"540.571","PERIAPSIS":"538.929","MEAN_MOTION_DDOT":"0.0000000000000","MEAN_ELEMENT_THEORY":"SGP4","MEAN_MOTION_DOT":"0.00001436","ARG_OF_PERICENTER":"84.6820","SITE":"AFETR","REV_AT_EPOCH":"7082","CLASSIFICATION_TYPE":"U","INCLINATION":"53.2170","GP_ID":"232492716"},{"REF_FRAME":"TEME","EPHEMERIS_TYPE":"0","MEAN_MOTION":"15.08833170","ECCENTRICITY":"0.00010830","TIME_SYSTEM":"UTC","BSTAR":"0.00012869000000","TLE_LINE1":"1 51732U 22016U   23144.36734673  .00001761  00000-0  12869-3 0  9996","LAUNCH_DATE":"2022-02-21","EPOCH":"2023-05-24T08:48:58.757472","FILE":"3916549","CENTER_NAME":"EARTH","DECAY_DATE":null,"NORAD_CAT_ID":"51732","SEMIMAJOR_AXIS":"6917.901","OBJECT_ID":"2022-016U","RCS_SIZE":"LARGE","OBJECT_TYPE":"PAYLOAD","ARG_OF_PERICENTER":"85.1828","REV_AT_EPOCH":"7067","SITE":"AFETR","GP_ID":"232450093","CLASSIFICATION_TYPE":"U","INCLINATION":"53.2161","PERIOD":"95.438","ELEMENT_SET_NO":"999","MEAN_ANOMALY":"274.9287","TLE_LINE2":"2 51732  53.2161 219.5236 0001083  85.1828 274.9287 15.08833170 70675","RA_OF_ASC_NODE":"219.5236","OBJECT_NAME":"STARLINK-3518","COUNTRY_CODE":"US","PERIAPSIS":"539.017","MEAN_MOTION_DDOT":"0.0000000000000","MEAN_ELEMENT_THEORY":"SGP4","MEAN_MOTION_DOT":"0.00001761","APOAPSIS":"540.515"},{"TLE_LINE1":"1 51733U 22016V   23145.56798284  .00001550  00000-0  11541-3 0  9990","BSTAR":"0.00011541000000","TIME_SYSTEM":"UTC","ECCENTRICITY":"0.00009090","MEAN_MOTION":"15.08842681","EPHEMERIS_TYPE":"0","REF_FRAME":"TEME","EPOCH":"2023-05-25T13:37:53.717376","LAUNCH_DATE":"2022-02-21","SEMIMAJOR_AXIS":"6917.872","OBJECT_ID":"2022-016V","NORAD_CAT_ID":"51733","DECAY_DATE":null,"CENTER_NAME":"EARTH","FILE":"3917103","OBJECT_TYPE":"PAYLOAD","RCS_SIZE":"LARGE","REV_AT_EPOCH":"7077","SITE":"AFETR","ARG_OF_PERICENTER":"79.6577","INCLINATION":"53.2162","CLASSIFICATION_TYPE":"U","GP_ID":"232492719","COUNTRY_CODE":"US","OBJECT_NAME":"STARLINK-3525","RA_OF_ASC_NODE":"214.1420","MEAN_ANOMALY":"280.4517","TLE_LINE2":"2 51733  53.2162 214.1420 0000909  79.6577 280.4517 15.08842681 70774","ELEMENT_SET_NO":"999","PERIOD":"95.437","APOAPSIS":"540.366","MEAN_MOTION_DOT":"0.00001550","MEAN_ELEMENT_THEORY":"SGP4","MEAN_MOTION_DDOT":"0.0000000000000","PERIAPSIS":"539.108"},{"SEMIMAJOR_AXIS":"6917.868","OBJECT_ID":"2022-016W","NORAD_CAT_ID":"51734","DECAY_DATE":null,"CENTER_NAME":"EARTH","FILE":"3917122","OBJECT_TYPE":"PAYLOAD","RCS_SIZE":"LARGE","BSTAR":"0.00005452700000","TLE_LINE1":"1 51734U 22016W   23145.61486376  .00000580  00000-0  54527-4 0  9997","TIME_SYSTEM":"UTC","ECCENTRICITY":"0.00012470","MEAN_MOTION":"15.08844144","EPHEMERIS_TYPE":"0","REF_FRAME":"TEME","EPOCH":"2023-05-25T14:45:24.228864","LAUNCH_DATE":"2022-02-21","OBJECT_NAME":"STARLINK-3450","COUNTRY_CODE":"US","RA_OF_ASC_NODE":"213.9177","TLE_LINE2":"2 51734  53.2152 213.9177 0001247  74.0722 286.0408 15.08844144 69716","MEAN_ANOMALY":"286.0408","ELEMENT_SET_NO":"999","PERIOD":"95.437","APOAPSIS":"540.595","MEAN_MOTION_DOT":"0.00000580","MEAN_ELEMENT_THEORY":"SGP4","MEAN_MOTION_DDOT":"0.0000000000000","PERIAPSIS":"538.870","REV_AT_EPOCH":"6971","SITE":"AFETR","ARG_OF_PERICENTER":"74.0722","INCLINATION":"53.2152","CLASSIFICATION_TYPE":"U","GP_ID":"232517282"},{"OBJECT_ID":"2022-016X","SEMIMAJOR_AXIS":"6917.887","FILE":"3916549","DECAY_DATE":null,"CENTER_NAME":"EARTH","NORAD_CAT_ID":"51735","OBJECT_TYPE":"PAYLOAD","RCS_SIZE":"LARGE","ECCENTRICITY":"0.00012990","MEAN_MOTION":"15.08837684","TIME_SYSTEM":"UTC","TLE_LINE1":"1 51735U 22016X   23144.36366186  .00000861  00000-0  72165-4 0  9995","BSTAR":"0.00007216500000","REF_FRAME":"TEME","EPHEMERIS_TYPE":"0","EPOCH":"2023-05-24T08:43:40.384704","LAUNCH_DATE":"2022-02-21","MEAN_ANOMALY":"245.8291","TLE_LINE2":"2 51735  53.2169 219.5362 0001299 114.2837 245.8291 15.08837684 69538","RA_OF_ASC_NODE":"219.5362","COUNTRY_CODE":"US","OBJECT_NAME":"STARLINK-3517","PERIOD":"95.438","ELEMENT_SET_NO":"999","APOAPSIS":"540.651","PERIAPSIS":"538.854","MEAN_MOTION_DDOT":"0.0000000000000","MEAN_ELEMENT_THEORY":"SGP4","MEAN_MOTION_DOT":"0.00000861","ARG_OF_PERICENTER":"114.2837","REV_AT_EPOCH":"6953","SITE":"AFETR","CLASSIFICATION_TYPE":"U","INCLINATION":"53.2169","GP_ID":"232451338"},{"OBJECT_NAME":"STARLINK-3447","COUNTRY_CODE":"US","RA_OF_ASC_NODE":"218.4171","TLE_LINE2":"2 51736  53.2162 218.4171 0001089  93.5493 266.5624 15.08844240 69561","MEAN_ANOMALY":"266.5624","ELEMENT_SET_NO":"999","PERIOD":"95.437","APOAPSIS":"540.486","MEAN_MOTION_DOT":"0.00002065","MEAN_ELEMENT_THEORY":"SGP4","MEAN_MOTION_DDOT":"0.0000000000000","PERIAPSIS":"538.979","SITE":"AFETR","REV_AT_EPOCH":"6956","ARG_OF_PERICENTER":"93.5493","INCLINATION":"53.2162","CLASSIFICATION_TYPE":"U","GP_ID":"232449593","SEMIMAJOR_AXIS":"6917.867","OBJECT_ID":"2022-016Y","NORAD_CAT_ID":"51736","DECAY_DATE":null,"CENTER_NAME":"EARTH","FILE":"3916549","OBJECT_TYPE":"PAYLOAD","RCS_SIZE":"LARGE","TLE_LINE1":"1 51736U 22016Y   23144.61390109  .00002065  00000-0  14774-3 0  9995","BSTAR":"0.00014774000000","TIME_SYSTEM":"UTC","ECCENTRICITY":"0.00010890","MEAN_MOTION":"15.08844240","EPHEMERIS_TYPE":"0","REF_FRAME":"TEME","EPOCH":"2023-05-24T14:44:01.054176","LAUNCH_DATE":"2022-02-21"},{"PERIOD":"95.438","ELEMENT_SET_NO":"999","MEAN_ANOMALY":"265.1416","TLE_LINE2":"2 51737  53.2161 213.9043 0001144  94.9707 265.1416 15.08837067 69714","RA_OF_ASC_NODE":"213.9043","COUNTRY_CODE":"US","OBJECT_NAME":"STARLINK-3509","PERIAPSIS":"538.963","MEAN_MOTION_DDOT":"0.0000000000000","MEAN_ELEMENT_THEORY":"SGP4","MEAN_MOTION_DOT":"0.00004056","APOAPSIS":"540.546","ARG_OF_PERICENTER":"94.9707","REV_AT_EPOCH":"6971","SITE":"AFETR","GP_ID":"232516030","CLASSIFICATION_TYPE":"U","INCLINATION":"53.2161","FILE":"3917122","DECAY_DATE":null,"CENTER_NAME":"EARTH","NORAD_CAT_ID":"51737","SEMIMAJOR_AXIS":"6917.889","OBJECT_ID":"2022-016Z","RCS_SIZE":"LARGE","OBJECT_TYPE":"PAYLOAD","REF_FRAME":"TEME","EPHEMERIS_TYPE":"0","MEAN_MOTION":"15.08837067","ECCENTRICITY":"0.00011440","TIME_SYSTEM":"UTC","TLE_LINE1":"1 51737U 22016Z   23145.61855255  .00004056  00000-0  27280-3 0  9993","BSTAR":"0.00027280000000","LAUNCH_DATE":"2022-02-21","EPOCH":"2023-05-25T14:50:42.940320"},{"MEAN_MOTION_DDOT":"0.0000000000000","PERIAPSIS":"539.133","MEAN_MOTION_DOT":"0.00001923","MEAN_ELEMENT_THEORY":"SGP4","APOAPSIS":"540.385","PERIOD":"95.438","ELEMENT_SET_NO":"999","MEAN_ANOMALY":"286.8703","TLE_LINE2":"2 51738  53.2157 220.2334 0000905  73.2388 286.8703 15.08835458 70615","OBJECT_NAME":"STARLINK-3515","COUNTRY_CODE":"US","RA_OF_ASC_NODE":"220.2334","GP_ID":"232415302","INCLINATION":"53.2157","CLASSIFICATION_TYPE":"U","ARG_OF_PERICENTER":"73.2388","REV_AT_EPOCH":"7061","SITE":"AFETR","RCS_SIZE":"LARGE","OBJECT_TYPE":"PAYLOAD","FILE":"3916048","NORAD_CAT_ID":"51738","DECAY_DATE":null,"CENTER_NAME":"EARTH","OBJECT_ID":"2022-016AA","SEMIMAJOR_AXIS":"6917.894","LAUNCH_DATE":"2022-02-21","EPOCH":"2023-05-24T05:01:06.540672","EPHEMERIS_TYPE":"0","REF_FRAME":"TEME","MEAN_MOTION":"15.08835458","ECCENTRICITY":"0.00009050","BSTAR":"0.00013889000000","TLE_LINE1":"1 51738U 22016AA  23144.20910348  .00001923  00000-0  13889-3 0  9993","TIME_SYSTEM":"UTC"}];
